OSCAR 7 (AO-7)          
1 07530U 74089B   26167.98236219 -.00000042  00000+0  29785-4 0  9996
2 07530 101.9900 181.2269 0012576 130.5028 286.3286 12.53698125360495
PHASE 3B (AO-10)        
1 14129U 83058B   26167.39836832  .00000184  00000+0  00000+0 0  9996
2 14129  25.9115 219.6954 6011122 115.4511 316.8847  2.05868576295470
UOSAT 2 (UO-11)         
1 14781U 84021B   26168.15425539  .00000926  00000+0  99821-4 0  9992
2 14781  97.8058 133.7292 0007651 172.3992 187.7343 14.90783243257120
LUSAT (LO-19)           
1 20442U 90005G   26168.04242580  .00000086  00000+0  47437-4 0  9996
2 20442  98.8850 189.8440 0011114 201.5317 158.5401 14.34123170902374
EYESAT A (AO-27)        
1 22825U 93061C   26168.06979947  .00000083  00000+0  48401-4 0  9993
2 22825  98.6881 235.4834 0009540 100.0615 260.1644 14.30942245706988
ITAMSAT (IO-26)         
1 22826U 93061D   26168.04924696  .00000079  00000+0  46466-4 0  9997
2 22826  98.6828 235.3803 0010075  85.3191 274.9142 14.31369158707292
RADIO ROSTO (RS15)      
1 23439U 94085A   26168.11598097 -.00000052  00000+0 -26511-3 0  9996
2 23439  64.8179 303.3313 0155948   3.8895 356.3203 11.27583468295899
JAS-2 (FO-29)           
1 24278U 96046B   26168.08931512  .00000003  00000+0  35306-4 0  9993
2 24278  98.5239  16.9749 0350903  96.6851 267.4347 13.53274399473151
TECHSAT 1B (GO-32)      
1 25397U 98043D   26167.99414689  .00000035  00000+0  35298-4 0  9990
2 25397  99.0067 160.7479 0001050 163.2340 196.8873 14.24428360451307
ISS (ZARYA)             
1 25544U 98067A   26168.18949189  .00009113  00000+0  17172-3 0  9996
2 25544  51.6332 300.0813 0004737 195.1146 164.9702 15.49273435571752
PCSAT (NO-44)           
1 26931U 01043C   26167.94977868  .00000077  00000+0  59805-4 0  9993
2 26931  67.0506 244.8859 0006077 264.6628  95.3780 14.31956043290415
SAUDISAT 1C (SO-50)     
1 27607U 02058C   26167.95299985  .00000833  00000+0  11563-3 0  9997
2 27607  64.5510 129.7097 0075272 262.5111  96.7439 14.83046700264420
CUTE-1 (CO-55)          
1 27844U 03031E   26167.96692816  .00000228  00000+0  11765-3 0  9995
2 27844  98.6736 176.5285 0009524 178.6032 181.5176 14.24335593191646
CUBESAT XI-IV (CO-57)   
1 27848U 03031J   26167.95527529  .00000197  00000+0  10575-3 0  9999
2 27848  98.6766 176.2299 0009009 197.6805 162.4061 14.23620738191347
MOZHAETS 4 (RS22)       
1 27939U 03042A   26168.22242762  .00000353  00000+0  62611-4 0  9999
2 27939  98.3462 352.5818 0009940 269.7492 206.0998 14.73465726215554
CUBESAT XI-V            
1 28895U 05043F   26167.38340975  .00001200  00000+0  19649-3 0  9999
2 28895  98.2985 322.9884 0013585 203.3717 156.6874 14.72629782101632
CUTE-1.7+APD II (CO-65) 
1 32785U 08021C   26168.18248431  .00004100  00000+0  26011-3 0  9997
2 32785  97.8272 149.6008 0009757  39.0823 321.1109 15.09451626985191
SEEDS II (CO-66)        
1 32791U 08021J   26167.93971588  .00015903  00000+0  50504-3 0  9999
2 32791  97.7513 165.8255 0001090   4.6274 355.4977 15.32745063987258
YUBILEINY (RS30)        
1 32953U 08025A   26168.17894034  .00000073  00000+0  45707-3 0  9991
2 32953  82.5036 355.4453 0018867 313.9508  46.0015 12.43179667819691
KKS-1 (KISEKI)          
1 33499U 09002H   26168.12166617  .00001069  00000+0  13796-3 0  9996
2 33499  98.1190  90.5628 0006531 296.1231  63.9310 14.83123869936181
SWISSCUBE               
1 35932U 09051B   26167.55290444  .00000809  00000+0  16935-3 0  9995
2 35932  98.4037  75.4301 0005921 205.2603 154.8309 14.62480577889065
BEESAT-1                
1 35933U 09051C   26167.97272745  .00000674  00000+0  14519-3 0  9992
2 35933  98.3964  75.4933 0004211 217.7177 142.3728 14.61720245889155
ITUPSAT1                
1 35935U 09051E   26167.68937774  .00000621  00000+0  13815-3 0  9992
2 35935  98.4049  74.3979 0006243 235.8160 124.2448 14.60440072888669
XIWANG-1 (HOPE-1)       
1 36122U 09072B   26168.16788370 -.00000091  00000+0 -12087-3 0  9997
2 36122 100.4028 122.0008 0006860 231.6804 128.3693 13.16438241793002
O/OREOS (USA 219)       
1 37224U 10062C   26168.06221402  .00001857  00000+0  18098-3 0  9996
2 37224  71.9713  80.6226 0012543  63.3482 296.8972 14.93744409116627
JUGNU                   
1 37839U 11058B   26168.10338875  .00000397  00000+0  67695-4 0  9998
2 37839  19.9617 308.9384 0018637  75.2680  81.6214 14.13776752759010
SRMSAT                  
1 37841U 11058D   26168.08915448  .00000356  00000+0  49079-4 0  9996
2 37841  19.9723  60.0600 0011791 202.5356 269.2197 14.11575544757800
STRAND-1                
1 39090U 13009E   26168.05600821  .00000208  00000+0  84356-4 0  9998
2 39090  98.3921 348.2936 0007721 225.7005 134.3549 14.37163232697045
ZACUBE-1 (TSHEPISOSAT)  
1 39417U 13066B   26168.14066506  .00002606  00000+0  20460-3 0  9999
2 39417  97.8081 130.4773 0040796 247.8306 111.8586 15.01188974680727
GOMX-1                  
1 39430U 13066Q   26168.18596690  .00001349  00000+0  20750-3 0  9995
2 39430  97.6476   8.6487 0130200  77.5310 284.0429 14.69459629669917
